IRIDIUM 154             
1 43574U 18061F   26192.65058328  .00000172  00000+0  54311-4 0  9993
2 43574  86.3942  46.5747 0002316  89.8976 270.2485 14.34217635416914
IRIDIUM 163             
1 43575U 18061G   26192.63155556  .00000140  00000+0  43043-4 0  9998
2 43575  86.3938  46.4971 0002171  85.0745 275.0699 14.34217605416882
IRIDIUM 156             
1 43576U 18061H   26192.67595413  .00000100  00000+0  28675-4 0  9993
2 43576  86.3937  46.4857 0002090  91.3584 268.7851 14.34217697416886
IRIDIUM 164             
1 43577U 18061J   26192.65692875  .00000147  00000+0  45339-4 0  9999
2 43577  86.3939  46.5346 0002305  89.3652 270.7808 14.34217348416928
IRIDIUM 159             
1 43578U 18061K   26192.69498159  .00000033  00000+0  45862-5 0  9999
2 43578  86.3938  46.4551 0002171  85.3518 274.7926 14.34217189416897
IRIDIUM 180             
1 43922U 19002A   26192.83401699  .00000087  00000+0  23912-4 0  9997
2 43922  86.3990 343.2937 0002234  90.8281 269.3171 14.34217524392520
IRIDIUM 176             
1 43923U 19002B   26192.83136667  .00000442  00000+0  66206-4 0  9996
2 43923  86.6107 343.2347 0002341  89.5783 270.5702 14.72246476402874
IRIDIUM 168             
1 43924U 19002C   26191.36253025  .00000045  00000+0  89730-5 0  9999
2 43924  86.3988 343.9865 0002243  90.7210 269.4243 14.34217872392298
IRIDIUM 173             
1 43925U 19002D   26192.81498631 -.00000075  00000+0 -33981-4 0  9996
2 43925  86.3988 343.2679 0002046  91.6671 268.4759 14.34217203392487
IRIDIUM 169             
1 43926U 19002E   26192.94451017  .00000033  00000+0  43305-5 0  9992
2 43926  86.4219  14.8394 0001787 100.7313 259.4087 14.38613023393789
IRIDIUM 172             
1 43927U 19002F   26192.80864550  .00000126  00000+0  37768-4 0  9996
2 43927  86.3985 343.2782 0002179  90.0881 270.0565 14.34217820392494
IRIDIUM 175             
1 43928U 19002G   26192.74388746  .00000176  00000+0  45982-4 0  9990
2 43928  86.4513 280.2568 0005133 122.1792 237.9908 14.43626124402526
IRIDIUM 171             
1 43929U 19002H   26192.85938584  .00000071  00000+0  18338-4 0  9993
2 43929  86.3996 343.5659 0002200  95.3869 264.7578 14.34217599392490
IRIDIUM 170             
1 43930U 19002J   26192.83753797  .00000448  00000+0  67144-4 0  9991
2 43930  86.6107 343.2344 0002301  85.7902 274.3578 14.72247065402885
IRIDIUM 167             
1 43931U 19002K   26192.85304319  .00000078  00000+0  20897-4 0  9999
2 43931  86.3989 343.2822 0002236  99.3604 260.7845 14.34217726392499
IRIDIUM 181             
1 56726U 23068S   26192.71838801  .00000182  00000+0  47990-4 0  9994
2 56726  86.4476  46.5324 0002424  84.2447 275.9030 14.43311052165976
IRIDIUM 177             
1 56727U 23068T   26192.86409483  .00000595  00000+0  75104-4 0  9997
2 56727  86.1983 317.0748 0002144  93.4786 266.6681 14.80027037170018
IRIDIUM 174             
1 56728U 23068U   26192.82511439  .00000454  00000+0  68119-4 0  9991
2 56728  86.6115 343.3894 0002032  85.2408 274.9041 14.72255517169647
IRIDIUM 178             
1 56729U 23068V   26192.58263401  .00000214  00000+0  24792-4 0  9991
2 56729  86.6533  15.1631 0002318  90.0623 270.0864 14.80025030169975
IRIDIUM 179             
1 56730U 23068W   26192.57729559  .00000503  00000+0  63042-4 0  9995
2 56730  86.6764  24.2174 0002300  92.0322 268.1163 14.80033271169971
